IRIDIUM 106             
1 41917U 17003A   25066.13479496  .00000352  00000+0  11863-3 0  9996
2 41917  86.3922 283.6893 0002085  72.9217 287.2207 14.34218868426269
IRIDIUM 103             
1 41918U 17003B   25065.70351573  .00000399  00000+0  13546-3 0  9995
2 41918  86.3923 283.7707 0002750  86.1987 273.9523 14.34218784426222
IRIDIUM 109             
1 41919U 17003C   25066.12845092  .00000387  00000+0  13122-3 0  9994
2 41919  86.3926 283.6447 0002230  92.6900 267.4551 14.34216901426279
IRIDIUM 102             
1 41920U 17003D   25065.67812738  .00000381  00000+0  12916-3 0  9990
2 41920  86.3923 283.7666 0001974  88.6719 271.4703 14.34217639426272
IRIDIUM 105             
1 41921U 17003E   25066.41631698  .00000060  00000+0  14245-4 0  9990
2 41921  86.3920 251.8675 0002154  89.2750 270.8693 14.34217709428236
IRIDIUM 104             
1 41922U 17003F   25065.69081532  .00000376  00000+0  12731-3 0  9993
2 41922  86.3924 283.7968 0002491  95.9713 264.1766 14.34218479426260
IRIDIUM 114             
1 41923U 17003G   25065.69715493  .00000203  00000+0  65284-4 0  9995
2 41923  86.3926 283.7790 0002458  87.3753 272.7725 14.34217302426240
IRIDIUM 108             
1 41924U 17003H   25065.58590851  .00000193  00000+0  61689-4 0  9996
2 41924  86.3916 252.1229 0001948  83.0394 277.1023 14.34217072428082
